<?xml version="1.0" encoding="UTF-8"?>
<ndm xmlns:xsi="http://www.w3.org/2001/XMLSchema-instance" xsi:noNamespaceSchemaLocation="https://sanaregistry.org/r/ndmxml_unqualified/ndmxml-2.0.0-master-2.0.xsd">
<omm id="CCSDS_OMM_VERS" version="2.0">
<header><CREATION_DATE/><ORIGINATOR/></header><body><segment><metadata><OBJECT_NAME>ORBCOMM FM24</OBJECT_NAME><OBJECT_ID>1998-053D</OBJECT_ID><CENTER_NAME>EARTH</CENTER_NAME><REF_FRAME>TEME</REF_FRAME><TIME_SYSTEM>UTC</TIME_SYSTEM><MEAN_ELEMENT_THEORY>SGP4</MEAN_ELEMENT_THEORY></metadata><data><meanElements><EPOCH>2024-10-07T12:59:33.451296</EPOCH><MEAN_MOTION>14.36595786</MEAN_MOTION><ECCENTRICITY>.0000748</ECCENTRICITY><INCLINATION>45.0093</INCLINATION><RA_OF_ASC_NODE>25.8125</RA_OF_ASC_NODE><ARG_OF_PERICENTER>264.4931</ARG_OF_PERICENTER><MEAN_ANOMALY>95.5832</MEAN_ANOMALY></meanElements><tleParameters><EPHEMERIS_TYPE>0</EPHEMERIS_TYPE><CLASSIFICATION_TYPE>U</CLASSIFICATION_TYPE><NORAD_CAT_ID>25478</NORAD_CAT_ID><ELEMENT_SET_NO>999</ELEMENT_SET_NO><REV_AT_EPOCH>36109</REV_AT_EPOCH><BSTAR>.24307E-2</BSTAR><MEAN_MOTION_DOT>.7078E-4</MEAN_MOTION_DOT><MEAN_MOTION_DDOT>0</MEAN_MOTION_DDOT></tleParameters></data></segment></body></omm>
<omm id="CCSDS_OMM_VERS" version="2.0">
<header><CREATION_DATE/><ORIGINATOR/></header><body><segment><metadata><OBJECT_NAME>ORBCOMM FM25</OBJECT_NAME><OBJECT_ID>1998-053E</OBJECT_ID><CENTER_NAME>EARTH</CENTER_NAME><REF_FRAME>TEME</REF_FRAME><TIME_SYSTEM>UTC</TIME_SYSTEM><MEAN_ELEMENT_THEORY>SGP4</MEAN_ELEMENT_THEORY></metadata><data><meanElements><EPOCH>2024-10-07T13:53:47.517216</EPOCH><MEAN_MOTION>14.36582937</MEAN_MOTION><ECCENTRICITY>.0001828</ECCENTRICITY><INCLINATION>45.0083</INCLINATION><RA_OF_ASC_NODE>23.8881</RA_OF_ASC_NODE><ARG_OF_PERICENTER>62.6991</ARG_OF_PERICENTER><MEAN_ANOMALY>297.4043</MEAN_ANOMALY></meanElements><tleParameters><EPHEMERIS_TYPE>0</EPHEMERIS_TYPE><CLASSIFICATION_TYPE>U</CLASSIFICATION_TYPE><NORAD_CAT_ID>25479</NORAD_CAT_ID><ELEMENT_SET_NO>999</ELEMENT_SET_NO><REV_AT_EPOCH>36139</REV_AT_EPOCH><BSTAR>.22798E-2</BSTAR><MEAN_MOTION_DOT>.6628E-4</MEAN_MOTION_DOT><MEAN_MOTION_DDOT>0</MEAN_MOTION_DDOT></tleParameters></data></segment></body></omm>
<omm id="CCSDS_OMM_VERS" version="2.0">
<header><CREATION_DATE/><ORIGINATOR/></header><body><segment><metadata><OBJECT_NAME>ORBCOMM FM26</OBJECT_NAME><OBJECT_ID>1998-053F</OBJECT_ID><CENTER_NAME>EARTH</CENTER_NAME><REF_FRAME>TEME</REF_FRAME><TIME_SYSTEM>UTC</TIME_SYSTEM><MEAN_ELEMENT_THEORY>SGP4</MEAN_ELEMENT_THEORY></metadata><data><meanElements><EPOCH>2024-10-07T13:55:47.559648</EPOCH><MEAN_MOTION>14.35875982</MEAN_MOTION><ECCENTRICITY>.0004057</ECCENTRICITY><INCLINATION>45.0080</INCLINATION><RA_OF_ASC_NODE>18.7035</RA_OF_ASC_NODE><ARG_OF_PERICENTER>91.5198</ARG_OF_PERICENTER><MEAN_ANOMALY>268.6115</MEAN_ANOMALY></meanElements><tleParameters><EPHEMERIS_TYPE>0</EPHEMERIS_TYPE><CLASSIFICATION_TYPE>U</CLASSIFICATION_TYPE><NORAD_CAT_ID>25480</NORAD_CAT_ID><ELEMENT_SET_NO>999</ELEMENT_SET_NO><REV_AT_EPOCH>36132</REV_AT_EPOCH><BSTAR>.20011E-2</BSTAR><MEAN_MOTION_DOT>.5716E-4</MEAN_MOTION_DOT><MEAN_MOTION_DDOT>0</MEAN_MOTION_DDOT></tleParameters></data></segment></body></omm>
<omm id="CCSDS_OMM_VERS" version="2.0">
<header><CREATION_DATE/><ORIGINATOR/></header><body><segment><metadata><OBJECT_NAME>ORBCOMM FM27</OBJECT_NAME><OBJECT_ID>1998-053G</OBJECT_ID><CENTER_NAME>EARTH</CENTER_NAME><REF_FRAME>TEME</REF_FRAME><TIME_SYSTEM>UTC</TIME_SYSTEM><MEAN_ELEMENT_THEORY>SGP4</MEAN_ELEMENT_THEORY></metadata><data><meanElements><EPOCH>2024-10-07T13:38:22.756416</EPOCH><MEAN_MOTION>14.36573919</MEAN_MOTION><ECCENTRICITY>.0002131</ECCENTRICITY><INCLINATION>45.0068</INCLINATION><RA_OF_ASC_NODE>24.1948</RA_OF_ASC_NODE><ARG_OF_PERICENTER>232.8520</ARG_OF_PERICENTER><MEAN_ANOMALY>127.2134</MEAN_ANOMALY></meanElements><tleParameters><EPHEMERIS_TYPE>0</EPHEMERIS_TYPE><CLASSIFICATION_TYPE>U</CLASSIFICATION_TYPE><NORAD_CAT_ID>25481</NORAD_CAT_ID><ELEMENT_SET_NO>999</ELEMENT_SET_NO><REV_AT_EPOCH>36132</REV_AT_EPOCH><BSTAR>.21995E-2</BSTAR><MEAN_MOTION_DOT>.6388E-4</MEAN_MOTION_DOT><MEAN_MOTION_DDOT>0</MEAN_MOTION_DDOT></tleParameters></data></segment></body></omm>
<omm id="CCSDS_OMM_VERS" version="2.0">
<header><CREATION_DATE/><ORIGINATOR/></header><body><segment><metadata><OBJECT_NAME>ORBCOMM FM28</OBJECT_NAME><OBJECT_ID>1998-053H</OBJECT_ID><CENTER_NAME>EARTH</CENTER_NAME><REF_FRAME>TEME</REF_FRAME><TIME_SYSTEM>UTC</TIME_SYSTEM><MEAN_ELEMENT_THEORY>SGP4</MEAN_ELEMENT_THEORY></metadata><data><meanElements><EPOCH>2024-10-07T12:18:02.716416</EPOCH><MEAN_MOTION>14.36923696</MEAN_MOTION><ECCENTRICITY>.0002011</ECCENTRICITY><INCLINATION>45.0063</INCLINATION><RA_OF_ASC_NODE>322.4624</RA_OF_ASC_NODE><ARG_OF_PERICENTER>138.3453</ARG_OF_PERICENTER><MEAN_ANOMALY>221.7548</MEAN_ANOMALY></meanElements><tleParameters><EPHEMERIS_TYPE>0</EPHEMERIS_TYPE><CLASSIFICATION_TYPE>U</CLASSIFICATION_TYPE><NORAD_CAT_ID>25482</NORAD_CAT_ID><ELEMENT_SET_NO>999</ELEMENT_SET_NO><REV_AT_EPOCH>36199</REV_AT_EPOCH><BSTAR>.1928E-2</BSTAR><MEAN_MOTION_DOT>.5622E-4</MEAN_MOTION_DOT><MEAN_MOTION_DDOT>0</MEAN_MOTION_DDOT></tleParameters></data></segment></body></omm>
<omm id="CCSDS_OMM_VERS" version="2.0">
<header><CREATION_DATE/><ORIGINATOR/></header><body><segment><metadata><OBJECT_NAME>ORBCOMM FM30</OBJECT_NAME><OBJECT_ID>1999-065A</OBJECT_ID><CENTER_NAME>EARTH</CENTER_NAME><REF_FRAME>TEME</REF_FRAME><TIME_SYSTEM>UTC</TIME_SYSTEM><MEAN_ELEMENT_THEORY>SGP4</MEAN_ELEMENT_THEORY></metadata><data><meanElements><EPOCH>2024-10-07T12:40:19.945632</EPOCH><MEAN_MOTION>14.36024319</MEAN_MOTION><ECCENTRICITY>.0005084</ECCENTRICITY><INCLINATION>45.0304</INCLINATION><RA_OF_ASC_NODE>204.6268</RA_OF_ASC_NODE><ARG_OF_PERICENTER>186.8099</ARG_OF_PERICENTER><MEAN_ANOMALY>173.2681</MEAN_ANOMALY></meanElements><tleParameters><EPHEMERIS_TYPE>0</EPHEMERIS_TYPE><CLASSIFICATION_TYPE>U</CLASSIFICATION_TYPE><NORAD_CAT_ID>25980</NORAD_CAT_ID><ELEMENT_SET_NO>999</ELEMENT_SET_NO><REV_AT_EPOCH>29864</REV_AT_EPOCH><BSTAR>.20416E-2</BSTAR><MEAN_MOTION_DOT>.5853E-4</MEAN_MOTION_DOT><MEAN_MOTION_DDOT>0</MEAN_MOTION_DDOT></tleParameters></data></segment></body></omm>
<omm id="CCSDS_OMM_VERS" version="2.0">
<header><CREATION_DATE/><ORIGINATOR/></header><body><segment><metadata><OBJECT_NAME>ORBCOMM FM31</OBJECT_NAME><OBJECT_ID>1999-065B</OBJECT_ID><CENTER_NAME>EARTH</CENTER_NAME><REF_FRAME>TEME</REF_FRAME><TIME_SYSTEM>UTC</TIME_SYSTEM><MEAN_ELEMENT_THEORY>SGP4</MEAN_ELEMENT_THEORY></metadata><data><meanElements><EPOCH>2024-10-07T11:52:17.962176</EPOCH><MEAN_MOTION>14.35996056</MEAN_MOTION><ECCENTRICITY>.0002724</ECCENTRICITY><INCLINATION>45.0215</INCLINATION><RA_OF_ASC_NODE>198.3815</RA_OF_ASC_NODE><ARG_OF_PERICENTER>222.1500</ARG_OF_PERICENTER><MEAN_ANOMALY>137.9138</MEAN_ANOMALY></meanElements><tleParameters><EPHEMERIS_TYPE>0</EPHEMERIS_TYPE><CLASSIFICATION_TYPE>U</CLASSIFICATION_TYPE><NORAD_CAT_ID>25981</NORAD_CAT_ID><ELEMENT_SET_NO>999</ELEMENT_SET_NO><REV_AT_EPOCH>29766</REV_AT_EPOCH><BSTAR>.19049E-2</BSTAR><MEAN_MOTION_DOT>.5447E-4</MEAN_MOTION_DOT><MEAN_MOTION_DDOT>0</MEAN_MOTION_DDOT></tleParameters></data></segment></body></omm>
<omm id="CCSDS_OMM_VERS" version="2.0">
<header><CREATION_DATE/><ORIGINATOR/></header><body><segment><metadata><OBJECT_NAME>ORBCOMM FM32</OBJECT_NAME><OBJECT_ID>1999-065C</OBJECT_ID><CENTER_NAME>EARTH</CENTER_NAME><REF_FRAME>TEME</REF_FRAME><TIME_SYSTEM>UTC</TIME_SYSTEM><MEAN_ELEMENT_THEORY>SGP4</MEAN_ELEMENT_THEORY></metadata><data><meanElements><EPOCH>2024-10-07T12:14:54.722976</EPOCH><MEAN_MOTION>14.35016818</MEAN_MOTION><ECCENTRICITY>.0004858</ECCENTRICITY><INCLINATION>45.0145</INCLINATION><RA_OF_ASC_NODE>213.1657</RA_OF_ASC_NODE><ARG_OF_PERICENTER>220.0095</ARG_OF_PERICENTER><MEAN_ANOMALY>140.0395</MEAN_ANOMALY></meanElements><tleParameters><EPHEMERIS_TYPE>0</EPHEMERIS_TYPE><CLASSIFICATION_TYPE>U</CLASSIFICATION_TYPE><NORAD_CAT_ID>25982</NORAD_CAT_ID><ELEMENT_SET_NO>999</ELEMENT_SET_NO><REV_AT_EPOCH>29828</REV_AT_EPOCH><BSTAR>.21825E-2</BSTAR><MEAN_MOTION_DOT>.6139E-4</MEAN_MOTION_DOT><MEAN_MOTION_DDOT>0</MEAN_MOTION_DDOT></tleParameters></data></segment></body></omm>

</ndm>
