ORBCOMM FM24            
1 25478U 98053D   24281.54135939  .00007078  00000+0  24307-2 0  9996
2 25478  45.0093  25.8125 0000748 264.4931  95.5832 14.36595786361095
ORBCOMM FM25            
1 25479U 98053E   24281.57902219  .00006628  00000+0  22798-2 0  9995
2 25479  45.0083  23.8881 0001828  62.6991 297.4043 14.36582937361390
ORBCOMM FM26            
1 25480U 98053F   24281.58041157  .00005716  00000+0  20011-2 0  9996
2 25480  45.0080  18.7035 0004057  91.5198 268.6115 14.35875982361327
ORBCOMM FM27            
1 25481U 98053G   24281.56831894  .00006388  00000+0  21995-2 0  9998
2 25481  45.0068  24.1948 0002131 232.8520 127.2134 14.36573919361325
ORBCOMM FM28            
1 25482U 98053H   24281.51253144  .00005622  00000+0  19280-2 0  9994
2 25482  45.0063 322.4624 0002011 138.3453 221.7548 14.36923696361991
ORBCOMM FM30            
1 25980U 99065A   24281.52800863  .00005853  00000+0  20416-2 0  9997
2 25980  45.0304 204.6268 0005084 186.8099 173.2681 14.36024319298648
ORBCOMM FM31            
1 25981U 99065B   24281.49465234  .00005447  00000+0  19049-2 0  9992
2 25981  45.0215 198.3815 0002724 222.1500 137.9138 14.35996056297666
ORBCOMM FM32            
1 25982U 99065C   24281.51035559  .00006139  00000+0  21825-2 0  9993
2 25982  45.0145 213.1657 0004858 220.0095 140.0395 14.35016818298283
